[
    {
        "Altitude(m)": 605470.7912281142,
        "Argument of Periapsis(deg)": 0.0,
        "Eccentricity": 0.0,
        "Inclination(deg)": 60.0,
        "Latitude(deg)": 27.98821014054531,
        "Longitude(deg)": 137.26297743063748,
        "Mean Anomaly(deg)": 147.2727,
        "RAAN(deg)": 75.0,
        "Satellite Name": "Test1 339",
        "Satellite Number": 339,
        "Semi-Major Axis(m)": 6980739.136638005,
        "Time(s)": 0
    },
    {
        "Altitude(m)": 605395.8289881324,
        "Argument of Periapsis(deg)": 0.00010418945913296404,
        "Eccentricity": 0.0,
        "Inclination(deg)": 60.0,
        "Latitude(deg)": 27.47390048153655,
        "Longitude(deg)": 137.61616456601342,
        "Mean Anomaly(deg)": 147.8928061454618,
        "RAAN(deg)": 74.99957995086027,
        "Satellite Name": "Test1 339",
        "Satellite Number": 339,
        "Semi-Major Axis(m)": 6980739.136638005,
        "Time(s)": 10
    }
]